$$SOE
2461295.500000000, A.D. 2026-Sep-12 00:00:00.0000, -2.459785239095428E+08, -2.218600055348046E+08, -2.735487114481060E+07,
2461302.500000000, A.D. 2026-Sep-19 00:00:00.0000, -2.350092152976698E+08, -2.255005069257333E+08, -2.749065004198453E+07,
2461309.500000000, A.D. 2026-Sep-26 00:00:00.0000, -2.237132368185233E+08, -2.288273923809616E+08, -2.758819820357542E+07,
2461316.500000000, A.D. 2026-Oct-03 00:00:00.0000, -2.120895866058567E+08, -2.318189280064631E+08, -2.764531740371059E+07,
2461323.500000000, A.D. 2026-Oct-10 00:00:00.0000, -2.001378878954182E+08, -2.344516826978117E+08, -2.765965248053950E+07,
2461330.500000000, A.D. 2026-Oct-17 00:00:00.0000, -1.878585425896301E+08, -2.367003642939529E+08, -2.762867812992150E+07,
2461337.500000000, A.D. 2026-Oct-24 00:00:00.0000, -1.752529176070395E+08, -2.385376414163494E+08, -2.754968494754837E+07,
2461344.500000000, A.D. 2026-Oct-31 00:00:00.0000, -1.623235710500599E+08, -2.399339511158312E+08, -2.741976488826263E+07,
2461351.500000000, A.D. 2026-Nov-07 00:00:00.0000, -1.490745265353066E+08, -2.408572930744725E+08, -2.723579643081805E+07,
2461358.500000000, A.D. 2026-Nov-14 00:00:00.0000, -1.355116060211602E+08, -2.412730114688071E+08, -2.699442981316267E+07,
2461365.500000000, A.D. 2026-Nov-21 00:00:00.0000, -1.216428356560165E+08, -2.411435675571146E+08, -2.669207275613567E+07,
2461372.500000000, A.D. 2026-Nov-28 00:00:00.0000, -1.074789408563635E+08, -2.404283123166983E+08, -2.632487777971040E+07,
2461379.500000000, A.D. 2026-Dec-05 00:00:00.0000, -9.303394498353866E+07, -2.390832698335809E+08, -2.588873287916940E+07,
2461386.500000000, A.D. 2026-Dec-12 00:00:00.0000, -7.832589235327803E+07, -2.370609436932131E+08, -2.537925729685393E+07,
2461393.500000000, A.D. 2026-Dec-19 00:00:00.0000, -6.337772109756826E+07, -2.343101691948639E+08, -2.479180499558501E+07,
2461400.500000000, A.D. 2026-Dec-26 00:00:00.0000, -4.821831164069194E+07, -2.307760454371787E+08, -2.412147974930103E+07,
2461407.500000000, A.D. 2027-Jan-02 00:00:00.0000, -3.288373637353521E+07, -2.263999947160429E+08, -2.336316716301598E+07,
2461414.500000000, A.D. 2027-Jan-09 00:00:00.0000, -1.741873308890321E+07, -2.211200151336622E+08, -2.251159070543489E+07,
2461421.500000000, A.D. 2027-Jan-16 00:00:00.0000, -1.878415582052350E+06, -2.148712163010160E+08, -2.156140104125272E+07,
2461428.500000000, A.D. 2027-Jan-23 00:00:00.0000, 1.366978443949518E+07, -2.075867573603209E+08, -2.050731048977035E+07,
2461435.500000000, A.D. 2027-Jan-30 00:00:00.0000, 2.914398499118812E+07, -1.991993395960452E+08, -1.934428703015226E+07,
2461442.500000000, A.D. 2027-Feb-06 00:00:00.0000, 4.444562976266647E+07, -1.896434376303447E+08, -1.806782427505156E+07,
2461449.500000000, A.D. 2027-Feb-13 00:00:00.0000, 5.945735862256535E+07, -1.788584735250764E+08, -1.667430396138546E+07,
2461456.500000000, A.D. 2027-Feb-20 00:00:00.0000, 7.404128169637202E+07, -1.667931322553136E+08, -1.516146410716453E+07,
2461463.500000000, A.D. 2027-Feb-27 00:00:00.0000, 8.803812823662466E+07, -1.534109539889288E+08, -1.352897666549583E+07,
2461470.500000000, A.D. 2027-Mar-06 00:00:00.0000, 1.012679141211929E+08, -1.386971728767384E+08, -1.177911858368862E+07,
2461477.500000000, A.D. 2027-Mar-13 00:00:00.0000, 1.135328974782668E+08, -1.226664795534291E+08, -9.917487736743905E+06,
2461484.500000000, A.D. 2027-Mar-20 00:00:00.0000, 1.246235871840712E+08, -1.053709526415590E+08, -7.953672041435830E+06,
2461491.500000000, A.D. 2027-Mar-27 00:00:00.0000, 1.343283039162704E+08, -8.690688377107638E+07, -5.901733580300998E+06,
2461498.500000000, A.D. 2027-Apr-03 00:00:00.0000, 1.424461618988026E+08, -6.741877917562440E+07, -3.780338535142977E+06,
2461505.500000000, A.D. 2027-Apr-10 00:00:00.0000, 1.488023613894567E+08, -4.709873026808981E+07, -1.612375042896289E+06,
2461512.500000000, A.D. 2027-Apr-17 00:00:00.0000, 1.532636035044484E+08, -2.617987890276500E+07, 5.760229999271873E+05,
2461519.500000000, A.D. 2027-Apr-24 00:00:00.0000, 1.557507309364730E+08, -4.923930883979435E+06, 2.756990398510295E+06,
2461526.500000000, A.D. 2027-May-01 00:00:00.0000, 1.562458480680566E+08, 1.639572250350038E+07, 4.902769808623759E+06,
2461533.500000000, A.D. 2027-May-08 00:00:00.0000, 1.547923372159855E+08, 3.751238660463464E+07, 6.987553148593584E+06,
2461540.500000000, A.D. 2027-May-15 00:00:00.0000, 1.514879737876754E+08, 5.818264684997763E+07, 8.988998900994129E+06,
2461547.500000000, A.D. 2027-May-22 00:00:00.0000, 1.464729959665720E+08, 7.819853892280571E+07, 1.088920240092722E+07,
2461554.500000000, A.D. 2027-May-29 00:00:00.0000, 1.399158512978254E+08, 9.739410473340072E+07, 1.267505528375575E+07,
2461561.500000000, A.D. 2027-Jun-05 00:00:00.0000, 1.319992340780514E+08, 1.156466013078545E+08, 1.433807523945098E+07,
2461568.500000000, A.D. 2027-Jun-12 00:00:00.0000, 1.229082461259873E+08, 1.328736131679532E+08, 1.587386978937215E+07,
2461575.500000000, A.D. 2027-Jun-19 00:00:00.0000, 1.128215397729684E+08, 1.490276649966867E+08, 1.728141194081370E+07,
2461582.500000000, A.D. 2027-Jun-26 00:00:00.0000, 1.019054967297867E+08, 1.640897832929838E+08, 1.856227381942794E+07,
2461589.500000000, A.D. 2027-Jul-03 00:00:00.0000, 9.031100861746584E+07, 1.780630635631850E+08, 1.971991500148632E+07,
2461596.500000000, A.D. 2027-Jul-10 00:00:00.0000, 7.817223235148986E+07, 1.909668739085339E+08, 2.075907575206350E+07,
2461603.500000000, A.D. 2027-Jul-17 00:00:00.0000, 6.560669865938010E+07, 2.028319809567065E+08, 2.168529095743640E+07,
2461610.500000000, A.D. 2027-Jul-24 00:00:00.0000, 5.271625527921182E+07, 2.136966527822902E+08, 2.250451942153962E+07,
2461617.500000000, A.D. 2027-Jul-31 00:00:00.0000, 3.958845796554330E+07, 2.236036634189824E+08, 2.322287281146608E+07,
2461624.500000000, A.D. 2027-Aug-07 00:00:00.0000, 2.629814352605431E+07, 2.325980665012338E+08, 2.384642539578985E+07,
2461631.500000000, A.D. 2027-Aug-14 00:00:00.0000, 1.290901418393306E+07, 2.407255905828363E+08, 2.438108648169027E+07,
2461638.500000000, A.D. 2027-Aug-21 00:00:00.0000, -5.248639613528717E+05, 2.480315154685300E+08, 2.483251941962717E+07,
2461645.500000000, A.D. 2027-Aug-28 00:00:00.0000, -1.395769494343257E+07, 2.545599135062360E+08, 2.520609417846967E+07,
2461652.500000000, A.D. 2027-Sep-04 00:00:00.0000, -2.735074001080694E+07, 2.603531633398532E+08, 2.550686388260265E+07,
2461659.500000000, A.D. 2027-Sep-11 00:00:00.0000, -4.067126033622920E+07, 2.654516611620109E+08, 2.573955791875458E+07,
2461666.500000000, A.D. 2027-Sep-18 00:00:00.0000, -5.389160627856108E+07, 2.698936722142843E+08, 2.590858606623653E+07,
2461673.500000000, A.D. 2027-Sep-25 00:00:00.0000, -6.698843911421920E+07, 2.737152801516478E+08, 2.601804967598598E+07,
2461680.500000000, A.D. 2027-Oct-02 00:00:00.0000, -7.994206956339683E+07, 2.769504031501196E+08, 2.607175709977125E+07,
2461687.500000000, A.D. 2027-Oct-09 00:00:00.0000, -9.273589756297310E+07, 2.796308541122322E+08, 2.607324142342106E+07,
2461694.500000000, A.D. 2027-Oct-16 00:00:00.0000, -1.053559387358690E+08, 2.817864286535318E+08, 2.602577916723283E+07,
2461701.500000000, A.D. 2027-Oct-23 00:00:00.0000, -1.177904242898100E+08, 2.834450093246799E+08, 2.593240904480633E+07,
2461708.500000000, A.D. 2027-Oct-30 00:00:00.0000, -1.300294625785250E+08, 2.846326786013992E+08, 2.579595022452781E+07,
2461715.500000000, A.D. 2027-Nov-06 00:00:00.0000, -1.420647536751835E+08, 2.853738362126368E+08, 2.561901994070384E+07,
2461722.500000000, A.D. 2027-Nov-13 00:00:00.0000, -1.538893505754886E+08, 2.856913149896387E+08, 2.540405026569661E+07,
2461729.500000000, A.D. 2027-Nov-20 00:00:00.0000, -1.654974570468383E+08, 2.856064905902253E+08, 2.515330349952963E+07,
2461736.500000000, A.D. 2027-Nov-27 00:00:00.0000, -1.768842545651363E+08, 2.851393865290242E+08, 2.486888624276736E+07,
2461743.500000000, A.D. 2027-Dec-04 00:00:00.0000, -1.880457553810344E+08, 2.843087745611637E+08, 2.455276242991206E+07,
2461750.500000000, A.D. 2027-Dec-11 00:00:00.0000, -1.989786780885636E+08, 2.831322690309493E+08, 2.420676533909313E+07,
2461757.500000000, A.D. 2027-Dec-18 00:00:00.0000, -2.096803419312447E+08, 2.816264147244661E+08, 2.383260858589068E+07,
2461764.500000000, A.D. 2027-Dec-25 00:00:00.0000, -2.201485767793705E+08, 2.798067683098084E+08, 2.343189615685642E+07,
2461771.500000000, A.D. 2028-Jan-01 00:00:00.0000, -2.303816463011616E+08, 2.776879736000565E+08, 2.300613155322485E+07,
$$EOE